NUSAT-1 (FRESCO)        
1 41557U 16033B   22240.19400252  .00006338  00000+0  18216-3 0  9998
2 41557  97.3902 338.0933 0011670 118.0166 302.6150 15.36109168348395
BEESAT-4                
1 41619U 16040W   22239.70438405  .00008538  00000+0  27230-3 0  9991
2 41619  97.2109 288.4883 0008338 210.3836 149.6924 15.32720595331637
CAS-2T & KS-1Q          
1 41847U 16066G   22240.18808150  .00000287  00000+0  53351-4 0  9991
2 41847  98.5458 304.7622 0363307 355.4820   4.3117 14.38702340304665
NAYIF-1 (EO-88)         
1 42017U 17008BX  22240.17851576  .00011593  00000+0  32717-3 0  9991
2 42017  97.2634 305.3280 0004183   9.0198 351.1121 15.36532478308088
ZHUHAI-1 02 (CAS-4B)    
1 42759U 17034B   22240.04636332  .00001362  00000+0  90037-4 0  9993
2 42759  43.0190 297.9550 0009448  11.9025  59.9426 15.12314380287196
ZHUHAI-1 01 (CAS-4A)    
1 42761U 17034D   22240.20422826  .00001555  00000+0  10074-3 0  9991
2 42761  43.0185 295.8210 0009722  13.8766  25.9234 15.12400772287226
MAX VALIER SAT          
1 42778U 17036P   22240.05628974  .00005370  00000+0  19925-3 0  9999
2 42778  97.1998 278.7218 0012412  76.1032 284.1588 15.27928006287831
RADFXSAT (FOX-1B)       
1 43017U 17073E   22239.68864170  .00002257  00000+0  17351-3 0  9996
2 43017  97.6650 130.9554 0246008 314.7901  43.3535 14.81869953257665
FOX-1D (AO-92)          
1 43137U 18004AC  22239.64692989  .00005982  00000+0  20526-3 0  9993
2 43137  97.3651 314.2028 0009055 107.7276 252.4954 15.30491503257231
DIWATA-2B               
1 43678U 18084H   22240.06466563  .00000353  00000+0  40359-4 0  9990
2 43678  97.9795  14.2105 0010926  54.4411 305.7836 14.92266170208534
ES'HAIL 2               
1 43700U 18090A   22239.82960422  .00000142  00000+0  00000+0 0  9998
2 43700   0.0245 145.4653 0001795  44.2367 110.7710  1.00269393 13748
FOX-1CLIFF (AO-95)      
1 43770U 18099N   22240.13121346  .00001832  00000+0  16509-3 0  9996
2 43770  97.6160 304.6134 0014978  41.4423 318.7932 14.96712139203731
ITASAT 1                
1 43786U 18099AE  22240.18526609  .00001249  00000+0  11383-3 0  9996
2 43786  97.6181 305.6227 0015253  33.1832 327.0343 14.96816968203783
JY1SAT (JO-97)          
1 43803U 18099AX  22240.17782584  .00001340  00000+0  12002-3 0  9992
2 43803  97.6141 305.3931 0014968  31.3909 328.8204 14.97372972203806
UWE-4                   
1 43880U 18111E   22239.72501269  .00001046  00000+0  92323-4 0  9998
2 43880  97.6602 144.7853 0012812  81.0228 279.2445 14.98454978200376
NEXUS (FO-99)           
1 43937U 19003F   22239.52168171  .00006937  00000+0  22512-3 0  9997
2 43937  97.1260 270.1600 0017874 257.2239 102.7006 15.32105242200852
PSAT2 (NO-104)          
1 44354U 19036R   22239.53304314  .00050798 -54432-5  39638-3 0  9995
2 44354  28.5234  42.9966 0208210  56.2718 305.7542 15.46337485175672
JAISAT-1                
1 44419U 19038F   22239.90167679  .00004629  00000+0  22885-3 0  9994
2 44419  97.6415 210.6691 0017031 241.1913 118.7611 15.18230782173894
DUCHIFAT-3              
1 44854U 19089C   22239.80546898  .00001640  00000+0  13070-3 0  9992
2 44854  36.9673  37.2137 0007180  71.3489 288.8035 15.01446636148667
CAS-6 (TIANQIN 1)       
1 44881U 19093C   22240.22612897  .00000191  00000+0  30912-4 0  9993
2 44881  97.8906 318.3989 0013992 317.1476  42.8656 14.81792725145401
RS-44 & BREEZE-KM R/B   
1 44909U 19096E   22239.88439052  .00000002  00000+0 -41691-4 0  9995
2 44909  82.5242 182.8246 0217802 152.4489 208.8360 12.79714391124643
ORBITAL FACTORY 2 (OF-2)
1 45113U 19071C   22240.07272158  .00022603  00000+0  42307-3 0  9995
2 45113  51.6367  66.1360 0008813  80.3865 279.8118 15.48569101144461
HUSKYSAT-1 (HO-107)     
1 45119U 19071J   22240.06571178  .00019527  00000+0  38412-3 0  9997
2 45119  51.6362  66.8086 0008805  75.9592 284.2374 15.47232898144443
BY70-2                  
1 45857U 20042B   22240.21787495  .00002799  00000+0  37225-3 0  9998
2 45857  97.9538 316.4016 0009247 237.7971 122.2338 14.80506601116078
SALSAT                  
1 46495U 20068K   22239.78680719  .00001855  00000+0  13567-3 0  9991
2 46495  97.7321 181.1311 0017358  40.0545 320.1957 15.04752272104914
BY70-3                  
1 46839U 20079N   22240.21183046  .00012001  00000+0  25946-3 0  9995
2 46839  97.1940 311.4799 0006571  82.2349 343.4171 15.44616894101310
RADFXSAT-2 (AO-109)     
1 47311U 21002C   22239.89840572  .00004871  00000+0  19537-3 0  9999
2 47311  60.6841  93.1050 0028959  27.7519 332.5107 15.26227270 89366
UVSQ-SAT                
1 47438U 21006AB  22240.09177297  .00003638  00000+0  19057-3 0  9991
2 47438  97.4316 297.6415 0012358  33.9567 326.2454 15.16360477 88130
DIY-1 (ARDUIQUBE)       
1 47963U 21022AH  22240.16922475  .00009426  00000+0  50326-3 0  9991
2 47963  97.5239 140.7628 0014063 241.5201 118.4615 15.15260896 77804
XW-3 (CAS-9)            
1 50466U 21131B   22240.16298740 -.00000011  00000+0  11119-4 0  9995
2 50466  98.5777 317.3738 0003345 300.6395  59.4462 14.38516845 35226
TEVEL-3                 
1 50988U 22002E   22240.16382535  .00003211  00000+0  17455-3 0  9990
2 50988  97.4778 305.9672 0010011 166.1177 251.0149 15.15164924 34274
TEVEL-8                 
1 50989U 22002F   22240.17235935  .00003292  00000+0  17911-3 0  9999
2 50989  97.4786 306.0010 0010154 165.5630 256.7624 15.15112477 34273
TEVEL-5                 
1 50998U 22002Q   22240.16092235  .00003290  00000+0  17624-3 0  9991
2 50998  97.4761 306.0984 0011572 163.6991 248.8870 15.15657806 34286
TEVEL-6                 
1 50999U 22002R   22240.16214688  .00003305  00000+0  17699-3 0  9999
2 50999  97.4763 306.0980 0011478 163.4501 258.8107 15.15662492 34286
TEVEL-1                 
1 51013U 22002AF  22240.16643337  .00003267  00000+0  17763-3 0  9993
2 51013  97.4772 305.9479 0009920 166.8757 246.0381 15.15139282 34272
TEVEL-7                 
1 51062U 22002CG  22240.17238443  .00003312  00000+0  18023-3 0  9997
2 51062  97.4779 305.9862 0010034 165.1231 247.8831 15.15104406 34275
TEVEL-4                 
1 51063U 22002CH  22240.17322825  .00003294  00000+0  17928-3 0  9998
2 51063  97.4781 305.9839 0010133 165.1713 247.6957 15.15094860 34277
TEVEL-2                 
1 51069U 22002CP  22240.16437306  .00003257  00000+0  17699-3 0  9998
2 51069  97.4769 305.9531 0010091 166.5531 246.1678 15.15157826 34270
RS3S                    
1 53308U 98067TT  22240.17139581  .00031344  00000+0  50790-3 0  9992
2 53308  51.6424 339.6492 0001311 141.3372 218.7712 15.52496131  5893
RS1S                    
1 53309U 98067TU  22240.17038493  .00031453  00000+0  50843-3 0  9993
2 53309  51.6422 339.6414 0001682 176.8710 183.2291 15.52561971  5844
RS5S                    
1 53310U 98067TV  22239.65598807  .00028957  00000+0  47071-3 0  9990
2 53310  51.6429 342.2077 0001431 176.3055 183.7946 15.52450538  5799
RS6S                    
1 53311U 98067TW  22240.16820834  .00032391  00000+0  52083-3 0  9993
2 53311  51.6421 339.6269 0001183 122.1439 237.9666 15.52694844  5896
RS9S                    
1 53312U 98067TX  22240.16911035  .00032448  00000+0  52316-3 0  9990
2 53312  51.6426 339.6334 0001851 182.0436 178.0547 15.52617667  5834
RS12S                   
1 53313U 98067TY  22240.16804514  .00031833  00000+0  51271-3 0  9990
2 53313  51.6425 339.6268 0001421 192.8439 167.2515 15.52657491  5884
RS4S                    
1 53321U 98067TZ  22240.17187950  .00031819  00000+0  51555-3 0  9997
2 53321  51.6428 339.6540 0001292 157.7307 202.3740 15.52491572  5886
RS29S (SXC3-2110 CYCLO*)
1 53373U 22096D   22240.17088137  .00003779  00000+0  15614-3 0  9990
2 53373  97.4358 141.4970 0003594 100.5611  58.5106 15.24613613  2874
RS32S (SXC3-212 MONITO*)
1 53374U 22096E   22240.17002690  .00003912  00000+0  16100-3 0  9991
2 53374  97.4353 141.4995 0003764  95.2618  66.2600 15.24720765  2875
RS34S (SXC3-218 KUZBAS*)
1 53375U 22096F   22240.03295755  .00003482  00000+0  14365-3 0  9996
2 53375  97.4345 141.3646 0003650  93.6400  37.0177 15.24720864  2857
RS23S (SXC3-21 UTMN)    
1 53376U 22096G   22240.29829595  .00000108  00000+0  72430-5 0  9991
2 53376  97.4354 141.6259 0003714  87.0206  61.6581 15.24762646  2893
RS28S (SXC3-214 MIET-A*)
1 53377U 22096H   22240.09376926  .00003403  00000+0  14017-3 0  9991
2 53377  97.4356 141.4254 0003628  92.2410  16.4058 15.24787418  2866
RS26S (KAI-1)           
1 53378U 22096J   22240.22673024  .00002950  00000+0  12181-3 0  9992
2 53378  97.4352 141.5585 0003680  88.0762  32.3909 15.24814167  2888
RS19S (SXC3-219 ISOI)   
1 53381U 22096M   22240.02596750  .00003446  00000+0  14002-3 0  9999
2 53381  97.4350 141.3717 0005499  43.6164  82.7185 15.25226114  2850
RS21S (CUBESX-HSE-2)    
1 53383U 22096P   22240.08894448  .00003235  00000+0  13140-3 0  9990
2 53383  97.4347 141.4355 0005545  43.4254  72.6781 15.25287028  2869
RS30S (SXC3-217 SIREN)  
1 53384U 22096Q   22240.29161700  .00003072  00000+0  12484-3 0  9991
2 53384  97.4354 141.6377 0005567  43.5978 106.1691 15.25307346  2894
RS20S (GEOSCAN-EDELVEIS)
1 53385U 22096R   22240.08679032  .00004191  00000+0  16840-3 0  9994
2 53385  97.4351 141.4391 0006194  41.0918  75.0262 15.25479990  2893
RS33S (SXC3-215 VIZARD) 
1 53386U 22096S   22240.22164571  .00005037  00000+0  20030-3 0  9994
2 53386  97.4347 141.5782 0006902  40.9596 110.1988 15.25723033  2909
CUTE-1 (CO-55)          
1 27844U 03031E   22239.96227873  .00000122  00000+0  74455-4 0  9997
2 27844  98.6801 246.5726 0008654 253.4305 106.5923 14.22484186994071
CUBESAT XI-IV (CO-57)   
1 27848U 03031J   22239.80690575  .00000103  00000+0  66293-4 0  9997
2 27848  98.6846 246.9240 0008527 270.2119  89.8082 14.22037076993821
CUBESAT XI-V            
1 28895U 05043F   22239.78520878  .00000431  00000+0  90358-4 0  9993
2 28895  98.1158  10.1031 0015290 277.1896  82.7568 14.64439526897856
